ONEWEB-0094             
1 45450U 20020AC  26004.33269805 -.00000003  00000+0 -42189-4 0  9992
2 45450  87.9097  38.4087 0001731  90.8256 269.3074 13.17648465284732
ONEWEB-0087             
1 45451U 20020AD  26004.14579719 -.00000344  00000+0 -10066-2 0  9995
2 45451  87.8847  53.6795 0001903  90.5300 269.6046 13.11416275281081
ONEWEB-0082             
1 45452U 20020AE  26004.14254983 -.00000069  00000+0 -22928-3 0  9994
2 45452  87.8847  53.7053 0001849  91.5950 268.5390 13.11415072281175
ONEWEB-0050             
1 45453U 20020AF  26004.21150588  .00004282  00000+0  44582-3 0  9998
2 45453  88.9230 255.5778 0002831 156.0709 204.0652 14.89666049315960
ONEWEB-0034             
1 45454U 20020AG  26004.16373227 -.00000422  00000+0 -12257-2 0  9997
2 45454  87.8840  53.7127 0001767  97.8722 262.2606 13.11418411281099
ONEWEB-0060             
1 45455U 20020AH  26004.21123152  .00000236  00000+0  62919-3 0  9996
2 45455  87.8825  53.7186 0002316  73.1094 287.0288 13.11416995281050
ONEWEB-0086             
1 45456U 20020AJ  26004.19003188  .00000520  00000+0  14324-2 0  9992
2 45456  87.8838  53.7043 0001591  71.2725 288.8576 13.11417832281118
ONEWEB-0088             
1 45457U 20020AK  26004.16798448 -.00000286  00000+0 -84353-3 0  9991
2 45457  87.8852  53.6665 0002051 101.2883 258.8475 13.11419832281044
ONEWEB-0102             
1 47258U 20100A   26004.07156091 -.00000342  00000+0 -98638-3 0  9997
2 47258  87.8918  23.2766 0001612  91.2111 268.9202 13.12442956243207
ONEWEB-0109             
1 47259U 20100B   26004.08004841 -.00000335  00000+0 -96742-3 0  9990
2 47259  87.8924  23.2452 0001610  92.9352 267.1961 13.12443195243030
ONEWEB-0110             
1 47260U 20100C   26004.33588440  .00000392  00000+0  10548-2 0  9992
2 47260  87.8926  23.1787 0001707  81.9323 278.1999 13.12443426243239
ONEWEB-0111             
1 47261U 20100D   26004.06141812 -.00000006  00000+0 -50947-4 0  9994
2 47261  87.8924  23.2512 0001810  91.6887 268.4448 13.12441101243030
ONEWEB-0114             
1 47262U 20100E   26004.01567727  .00000035  00000+0  61528-4 0  9994
2 47262  87.8927  23.2553 0001522 103.5033 256.6265 13.12443901242984
ONEWEB-0117             
1 47263U 20100F   26004.08344058 -.00000268  00000+0 -78018-3 0  9993
2 47263  87.8921  23.2380 0001730  90.7006 269.4321 13.12442841243006
ONEWEB-0118             
1 47264U 20100G   26004.11734573  .00000556  00000+0  15099-2 0  9990
2 47264  87.8924  23.2323 0001724 102.7424 257.3897 13.12441391243203
ONEWEB-0119             
1 47265U 20100H   26004.06650757 -.00000316  00000+0 -91459-3 0  9997
2 47265  87.8915  23.2739 0001640  91.9680 268.1636 13.12431751243171
