[{"OBJECT_NAME":"ONEWEB-0094","OBJECT_ID":"2020-020AC","EPOCH":"2026-01-04T07:59:05.111520","MEAN_MOTION":13.17648465,"ECCENTRICITY":0.00017313,"INCLINATION":87.9097,"RA_OF_ASC_NODE":38.4087,"ARG_OF_PERICENTER":90.8256,"MEAN_ANOMALY":269.3074,"EPHEMERIS_TYPE":0,"CLASSIFICATION_TYPE":"U","NORAD_CAT_ID":45450,"ELEMENT_SET_NO":999,"REV_AT_EPOCH":28473,"BSTAR":-4.2188789e-5,"MEAN_MOTION_DOT":-3.0e-8,"MEAN_MOTION_DDOT":0},{"OBJECT_NAME":"ONEWEB-0087","OBJECT_ID":"2020-020AD","EPOCH":"2026-01-04T03:29:56.877216","MEAN_MOTION":13.11416275,"ECCENTRICITY":0.00019033,"INCLINATION":87.8847,"RA_OF_ASC_NODE":53.6795,"ARG_OF_PERICENTER":90.53,"MEAN_ANOMALY":269.6046,"EPHEMERIS_TYPE":0,"CLASSIFICATION_TYPE":"U","NORAD_CAT_ID":45451,"ELEMENT_SET_NO":999,"REV_AT_EPOCH":28108,"BSTAR":-0.0010066131,"MEAN_MOTION_DOT":-3.44e-6,"MEAN_MOTION_DDOT":0},{"OBJECT_NAME":"ONEWEB-0082","OBJECT_ID":"2020-020AE","EPOCH":"2026-01-04T03:25:16.305312","MEAN_MOTION":13.11415072,"ECCENTRICITY":0.00018497,"INCLINATION":87.8847,"RA_OF_ASC_NODE":53.7053,"ARG_OF_PERICENTER":91.595,"MEAN_ANOMALY":268.539,"EPHEMERIS_TYPE":0,"CLASSIFICATION_TYPE":"U","NORAD_CAT_ID":45452,"ELEMENT_SET_NO":999,"REV_AT_EPOCH":28117,"BSTAR":-0.00022927511,"MEAN_MOTION_DOT":-6.9e-7,"MEAN_MOTION_DDOT":0},{"OBJECT_NAME":"ONEWEB-0050","OBJECT_ID":"2020-020AF","EPOCH":"2026-01-04T05:04:34.108032","MEAN_MOTION":14.89666049,"ECCENTRICITY":0.00028317,"INCLINATION":88.923,"RA_OF_ASC_NODE":255.5778,"ARG_OF_PERICENTER":156.0709,"MEAN_ANOMALY":204.0652,"EPHEMERIS_TYPE":0,"CLASSIFICATION_TYPE":"U","NORAD_CAT_ID":45453,"ELEMENT_SET_NO":999,"REV_AT_EPOCH":31596,"BSTAR":0.00044582469,"MEAN_MOTION_DOT":4.282e-5,"MEAN_MOTION_DDOT":0},{"OBJECT_NAME":"ONEWEB-0034","OBJECT_ID":"2020-020AG","EPOCH":"2026-01-04T03:55:46.468128","MEAN_MOTION":13.11418411,"ECCENTRICITY":0.00017675,"INCLINATION":87.884,"RA_OF_ASC_NODE":53.7127,"ARG_OF_PERICENTER":97.8722,"MEAN_ANOMALY":262.2606,"EPHEMERIS_TYPE":0,"CLASSIFICATION_TYPE":"U","NORAD_CAT_ID":45454,"ELEMENT_SET_NO":999,"REV_AT_EPOCH":28109,"BSTAR":-0.0012256806,"MEAN_MOTION_DOT":-4.22e-6,"MEAN_MOTION_DDOT":0},{"OBJECT_NAME":"ONEWEB-0060","OBJECT_ID":"2020-020AH","EPOCH":"2026-01-04T05:04:10.403328","MEAN_MOTION":13.11416995,"ECCENTRICITY":0.00023161,"INCLINATION":87.8825,"RA_OF_ASC_NODE":53.7186,"ARG_OF_PERICENTER":73.1094,"MEAN_ANOMALY":287.0288,"EPHEMERIS_TYPE":0,"CLASSIFICATION_TYPE":"U","NORAD_CAT_ID":45455,"ELEMENT_SET_NO":999,"REV_AT_EPOCH":28105,"BSTAR":0.00062919159,"MEAN_MOTION_DOT":2.36e-6,"MEAN_MOTION_DDOT":0},{"OBJECT_NAME":"ONEWEB-0086","OBJECT_ID":"2020-020AJ","EPOCH":"2026-01-04T04:33:38.754432","MEAN_MOTION":13.11417832,"ECCENTRICITY":0.00015919,"INCLINATION":87.8838,"RA_OF_ASC_NODE":53.7043,"ARG_OF_PERICENTER":71.2725,"MEAN_ANOMALY":288.8576,"EPHEMERIS_TYPE":0,"CLASSIFICATION_TYPE":"U","NORAD_CAT_ID":45456,"ELEMENT_SET_NO":999,"REV_AT_EPOCH":28111,"BSTAR":0.0014323908,"MEAN_MOTION_DOT":5.2e-6,"MEAN_MOTION_DDOT":0},{"OBJECT_NAME":"ONEWEB-0088","OBJECT_ID":"2020-020AK","EPOCH":"2026-01-04T04:01:53.859072","MEAN_MOTION":13.11419832,"ECCENTRICITY":0.00020513,"INCLINATION":87.8852,"RA_OF_ASC_NODE":53.6665,"ARG_OF_PERICENTER":101.2883,"MEAN_ANOMALY":258.8475,"EPHEMERIS_TYPE":0,"CLASSIFICATION_TYPE":"U","NORAD_CAT_ID":45457,"ELEMENT_SET_NO":999,"REV_AT_EPOCH":28104,"BSTAR":-0.00084353434,"MEAN_MOTION_DOT":-2.86e-6,"MEAN_MOTION_DDOT":0},{"OBJECT_NAME":"ONEWEB-0102","OBJECT_ID":"2020-100A","EPOCH":"2026-01-04T01:43:02.862624","MEAN_MOTION":13.12442956,"ECCENTRICITY":0.00016126,"INCLINATION":87.8918,"RA_OF_ASC_NODE":23.2766,"ARG_OF_PERICENTER":91.2111,"MEAN_ANOMALY":268.9202,"EPHEMERIS_TYPE":0,"CLASSIFICATION_TYPE":"U","NORAD_CAT_ID":47258,"ELEMENT_SET_NO":999,"REV_AT_EPOCH":24320,"BSTAR":-0.00098637862,"MEAN_MOTION_DOT":-3.42e-6,"MEAN_MOTION_DDOT":0},{"OBJECT_NAME":"ONEWEB-0109","OBJECT_ID":"2020-100B","EPOCH":"2026-01-04T01:55:16.182624","MEAN_MOTION":13.12443195,"ECCENTRICITY":0.00016109,"INCLINATION":87.8924,"RA_OF_ASC_NODE":23.2452,"ARG_OF_PERICENTER":92.9352,"MEAN_ANOMALY":267.1961,"EPHEMERIS_TYPE":0,"CLASSIFICATION_TYPE":"U","NORAD_CAT_ID":47259,"ELEMENT_SET_NO":999,"REV_AT_EPOCH":24303,"BSTAR":-0.00096742324,"MEAN_MOTION_DOT":-3.35e-6,"MEAN_MOTION_DDOT":0},{"OBJECT_NAME":"ONEWEB-0110","OBJECT_ID":"2020-100C","EPOCH":"2026-01-04T08:03:40.412160","MEAN_MOTION":13.12443426,"ECCENTRICITY":0.00017073,"INCLINATION":87.8926,"RA_OF_ASC_NODE":23.1787,"ARG_OF_PERICENTER":81.9323,"MEAN_ANOMALY":278.1999,"EPHEMERIS_TYPE":0,"CLASSIFICATION_TYPE":"U","NORAD_CAT_ID":47260,"ELEMENT_SET_NO":999,"REV_AT_EPOCH":24323,"BSTAR":0.001054847,"MEAN_MOTION_DOT":3.92e-6,"MEAN_MOTION_DDOT":0},{"OBJECT_NAME":"ONEWEB-0111","OBJECT_ID":"2020-100D","EPOCH":"2026-01-04T01:28:26.525568","MEAN_MOTION":13.12441101,"ECCENTRICITY":0.00018103,"INCLINATION":87.8924,"RA_OF_ASC_NODE":23.2512,"ARG_OF_PERICENTER":91.6887,"MEAN_ANOMALY":268.4448,"EPHEMERIS_TYPE":0,"CLASSIFICATION_TYPE":"U","NORAD_CAT_ID":47261,"ELEMENT_SET_NO":999,"REV_AT_EPOCH":24303,"BSTAR":-5.0947273e-5,"MEAN_MOTION_DOT":-6.0e-8,"MEAN_MOTION_DDOT":0},{"OBJECT_NAME":"ONEWEB-0114","OBJECT_ID":"2020-100E","EPOCH":"2026-01-04T00:22:34.516128","MEAN_MOTION":13.12443901,"ECCENTRICITY":0.0001522,"INCLINATION":87.8927,"RA_OF_ASC_NODE":23.2553,"ARG_OF_PERICENTER":103.5033,"MEAN_ANOMALY":256.6265,"EPHEMERIS_TYPE":0,"CLASSIFICATION_TYPE":"U","NORAD_CAT_ID":47262,"ELEMENT_SET_NO":999,"REV_AT_EPOCH":24298,"BSTAR":6.1527879e-5,"MEAN_MOTION_DOT":3.5e-7,"MEAN_MOTION_DDOT":0},{"OBJECT_NAME":"ONEWEB-0117","OBJECT_ID":"2020-100F","EPOCH":"2026-01-04T02:00:09.266112","MEAN_MOTION":13.12442841,"ECCENTRICITY":0.00017307,"INCLINATION":87.8921,"RA_OF_ASC_NODE":23.238,"ARG_OF_PERICENTER":90.7006,"MEAN_ANOMALY":269.4321,"EPHEMERIS_TYPE":0,"CLASSIFICATION_TYPE":"U","NORAD_CAT_ID":47263,"ELEMENT_SET_NO":999,"REV_AT_EPOCH":24300,"BSTAR":-0.00078018463,"MEAN_MOTION_DOT":-2.68e-6,"MEAN_MOTION_DDOT":0},{"OBJECT_NAME":"ONEWEB-0118","OBJECT_ID":"2020-100G","EPOCH":"2026-01-04T02:48:58.671072","MEAN_MOTION":13.12441391,"ECCENTRICITY":0.00017243,"INCLINATION":87.8924,"RA_OF_ASC_NODE":23.2323,"ARG_OF_PERICENTER":102.7424,"MEAN_ANOMALY":257.3897,"EPHEMERIS_TYPE":0,"CLASSIFICATION_TYPE":"U","NORAD_CAT_ID":47264,"ELEMENT_SET_NO":999,"REV_AT_EPOCH":24320,"BSTAR":0.0015098665,"MEAN_MOTION_DOT":5.56e-6,"MEAN_MOTION_DDOT":0},{"OBJECT_NAME":"ONEWEB-0119","OBJECT_ID":"2020-100H","EPOCH":"2026-01-04T01:35:46.254048","MEAN_MOTION":13.12431751,"ECCENTRICITY":0.00016408,"INCLINATION":87.8915,"RA_OF_ASC_NODE":23.2739,"ARG_OF_PERICENTER":91.968,"MEAN_ANOMALY":268.1636,"EPHEMERIS_TYPE":0,"CLASSIFICATION_TYPE":"U","NORAD_CAT_ID":47265,"ELEMENT_SET_NO":999,"REV_AT_EPOCH":24317,"BSTAR":-0.00091458559,"MEAN_MOTION_DOT":-3.16e-6,"MEAN_MOTION_DDOT":0}]
